ONEWEB-0327             
1 49196U 21083L   24066.23231938  .00000066  00000+0  13427-3 0  9993
2 49196  87.9215 141.2656 0002359 108.8056 251.3333 13.18687921120240
ONEWEB-0328             
1 49197U 21083M   24066.60032126  .00000244  00000+0  63341-3 0  9991
2 49197  87.8948 125.9829 0001981 105.5659 254.5689 13.13469062121606
ONEWEB-0331             
1 49198U 21083N   24066.25208279  .00000102  00000+0  22606-3 0  9999
2 49198  87.9217 141.2429 0002030 109.2431 250.8921 13.18686748120232
ONEWEB-0333             
1 49199U 21083P   24066.59558814 -.00002209  00000+0 -60879-2 0  9995
2 49199  87.8964 125.9994 0002101  96.4780 263.6589 13.13448516121619
ONEWEB-0334             
1 49200U 21083Q   24066.54384617  .00000035  00000+0  53278-4 0  9991
2 49200  87.9117  80.1948 0002337  70.7388 289.3998 13.20772512126881
ONEWEB-0335             
1 49201U 21083R   24066.59079293 -.00000295  00000+0 -84382-3 0  9997
2 49201  87.8960 125.9882 0001866 103.9923 256.1414 13.13470763121629
ONEWEB-0336             
1 49202U 21083S   24066.56063419 -.00000405  00000+0 -11429-2 0  9992
2 49202  87.8959 125.9914 0002041  97.3849 262.7512 13.13470203121613
ONEWEB-0337             
1 49203U 21083T   24066.57002270 -.00000412  00000+0 -11620-2 0  9993
2 49203  87.8959 125.9881 0001888 105.4678 254.6659 13.13469147121613
